STARLINK-3547           
1 51889U 22022AP  22073.83334491  .00082545  00000+0  58611-3 0  9995
2 51889  53.2193  88.5589 0001325  58.3777 271.0529 15.73227280  2440
STARLINK-3519           
1 51890U 22022AQ  22073.83334491  .00014012  00000+0  10350-3 0  9999
2 51890  53.2191  88.5609 0001389  43.4340 284.7950 15.73333091  2441
STARLINK-3549           
1 51891U 22022AR  22073.83334491  .00027879  00000+0  20168-3 0  9993
2 51891  53.2194  88.5579 0001380  43.6907 286.4443 15.73283294  2426
STARLINK-3587           
1 51892U 22022AS  22073.83334491 -.00026808  00000+0 -18612-3 0  9998
2 51892  53.2191  88.5596 0001413  40.6195 288.2197 15.73333549  2410
STARLINK-3579           
1 51893U 22022AT  22073.83334491  .00048680  00000+0  34842-3 0  9992
2 51893  53.2195  88.5551 0001541  49.4522 281.9645 15.73256121  2417
STARLINK-3595           
1 51894U 22022AU  22073.83334491  .00080440  00000+0  57134-3 0  9992
2 51894  53.2190  88.5556 0001129  50.8188 279.8945 15.73230709  2417
STARLINK-3594           
1 51895U 22022AV  22073.83334491  .00064681  00000+0  46082-3 0  9992
2 51895  53.2195  88.5528 0001470  51.8311 280.8510 15.73246164  2412
STARLINK-3593           
1 51896U 22022AW  22073.83334491 -.00011848  00000+0 -79830-4 0  9990
2 51896  53.2190  88.5530 0001523  49.2105 282.9124 15.73282304  2445
STARLINK-3598           
1 51897U 22022AX  22073.83334491  .00081610  00000+0  57875-3 0  9997
2 51897  53.2195  88.5513 0001495  60.5111 272.8544 15.73260968  2416
STARLINK-3597           
1 51898U 22022AY  22073.83334491  .00066130  00000+0  47056-3 0  9998
2 51898  53.2191  88.5490 0001185  41.3991 292.6685 15.73266650  2416
FALCON 9 DEB            
1 51899U 22022AZ  22073.46378983  .00194258  24909-4  62378-3 0  9998
2 51899  53.2272  89.7345 0006921 329.0787  30.9832 15.90597304  1734
FALCON 9 DEB            
1 51900U 22022BA  22073.46091848  .00250477  34359-4  77664-3 0  9993
2 51900  53.2252  89.7129 0004761 313.6415  46.4218 15.91227001  1737
FALCON 9 DEB            
1 51901U 22022BB  22073.51603796  .00270377  38733-4  77982-3 0  9995
2 51901  53.2215  89.3357 0009137 299.2672  60.7443 15.92545617  1749
FALCON 9 DEB            
1 51902U 22022BC  22073.76491454  .00241023  33089-4  68525-3 0  9997
2 51902  53.2205  88.0399 0007856 282.3173  77.6976 15.92867458  1788
2022-023A               
1 51946U 22023A   22073.88318579 -.00000061  00000+0  70879-5 0  9990
2 51946  63.4518 162.5151 0017437 306.4133 169.3947 15.25551949  1474
2022-023B               
1 51947U 22023B   22073.81744590  .00008762  00000+0  34952-3 0  9995
2 51947  63.4502 162.7370 0017849 305.6350 168.3503 15.25667995  1467
2022-023C               
1 51948U 22023C   22073.81928594  .00003446  00000+0  14516-3 0  9992
2 51948  63.4457 162.7407 0017709 300.7890 173.3657 15.25231650  1469
2022-023D               
1 51949U 22023D   22073.81982809 -.00047698  00000+0 -18926-2 0  9999
2 51949  63.4506 162.7509 0015514 303.8010 170.3354 15.25047614  1464
2022-023E               
1 51950U 22023E   22073.81915716  .00001040  00000+0  50946-4 0  9993
2 51950  63.4468 162.7595 0015400 300.9233 161.4040 15.24922692  1467
2022-023F               
1 51951U 22023F   22073.82003649  .00000627  00000+0  34590-4 0  9995
2 51951  63.4426 162.7584 0015543 296.7820 167.2967 15.24851382  1461
2022-023G               
1 51952U 22023G   22073.82105530  .00007096  00000+0  29076-3 0  9997
2 51952  63.4410 162.7537 0016809 298.8335 167.8685 15.24998203  1460
2022-023H               
1 51953U 22023H   22073.82104967  .00003413  00000+0  24558-3 0  9990
2 51953  63.6400 164.5657 0115962 247.2760 111.6062 15.00904899  1441
NOOR-2                  
1 51954U 22024A   22073.90662862  .00006100  00000+0  28777-3 0  9997
2 51954  58.2944 117.8772 0012577 252.7189 163.6921 15.20668382  1018
QASED R/B               
1 51955U 22024B   22073.95981787  .00003979  00000+0  18984-3 0  9993
2 51955  58.2989 117.6436 0009748 262.2653  97.7343 15.21161497  1012
